NORAD_CAT_ID,OBJECT_NAME,OBJECT_TYPE,EPOCH,MEAN_MOTION,ECCENTRICITY,INCLINATION,RA_OF_ASC_NODE,ARG_OF_PERICENTER,MEAN_ANOMALY,BSTAR,MEAN_MOTION_DOT,MEAN_MOTION_DDOT,TLE_LINE0,TLE_LINE1,TLE_LINE2,SEMIMAJOR_AXIS,PERIOD,APOGEE,PERIGEE,DECAYED
55393.0,STARLINK-4786,PAYLOAD,2023-11-08 15:50:42,14.98335452,0.0002645,70.002,52.584,259.9493,100.1367,9.5442e-05,1.046e-05,0.0,0 STARLINK-4786,1 55393U 23014C   23312.66021010  .00001046  00000-0  95442-4 0  9991,2 55393  70.0020  52.5840 0002645 259.9493 100.1367 14.98335452 44435,6950.176,96.107,573.879,570.203,0.0
55393.0,STARLINK-4786,PAYLOAD,2023-11-09 12:40:26,14.98334166,0.0002682,70.002,50.3962,254.5436,105.5426,0.00030098,3.5e-05,0.0,0 STARLINK-4786,1 55393U 23014C   23313.52808913  .00003500  00000-0  30098-3 0  9994,2 55393  70.0020  50.3962 0002682 254.5436 105.5426 14.98334166 43621,6950.18,96.107,573.909,570.181,0.0
55393.0,STARLINK-4786,PAYLOAD,2023-11-09 14:16:35,14.98332525,0.0002599,70.0022,50.2281,254.7779,105.3093,0.00027777,3.223e-05,0.0,0 STARLINK-4786,1 55393U 23014C   23313.59485070  .00003223  00000-0  27777-3 0  9998,2 55393  70.0022  50.2281 0002599 254.7779 105.3093 14.98332525 44575,6950.185,96.107,573.856,570.244,0.0
55393.0,STARLINK-4786,PAYLOAD,2023-11-09 15:52:42,14.98335369,0.0002723,70.0015,50.0586,267.2677,92.817,0.0002959,3.44e-05,0.0,0 STARLINK-4786,1 55393U 23014C   23313.66160868  .00003440  00000-0  29590-3 0  9997,2 55393  70.0015  50.0586 0002723 267.2677  92.8170 14.98335369 44584,6950.176,96.107,573.934,570.149,0.0
55393.0,STARLINK-4786,PAYLOAD,2023-11-10 12:42:25,14.98368997,0.0003009,70.0013,47.8692,265.914,94.1675,0.00025196,2.918e-05,0.0,0 STARLINK-4786,1 55393U 23014C   23314.52945963  .00002918  00000-0  25196-3 0  9997,2 55393  70.0013  47.8692 0003009 265.9140  94.1675 14.98368997 43770,6950.072,96.104,574.029,569.846,0.0
55393.0,STARLINK-4786,PAYLOAD,2023-11-10 14:18:36,14.98327915,0.0002822,70.0012,47.7002,265.243,94.8406,-0.00022137,-2.733e-05,0.0,0 STARLINK-4786,1 55393U 23014C   23314.59625572 -.00002733  00000-0 -22137-3 0  9994,2 55393  70.0012  47.7002 0002822 265.2430  94.8406 14.98327915 44720,6950.199,96.107,574.026,570.103,0.0
55393.0,STARLINK-4786,PAYLOAD,2023-11-10 15:54:44,14.98330319,0.0002906,70.001,47.5321,266.7723,93.3103,-0.00018225,-2.267e-05,0.0,0 STARLINK-4786,1 55393U 23014C   23314.66301304 -.00002267  00000-0 -18225-3 0  9991,2 55393  70.0010  47.5321 0002906 266.7723  93.3103 14.98330319 43790,6950.192,96.107,574.077,570.037,0.0
55393.0,STARLINK-4786,PAYLOAD,2023-11-10 23:55:25,14.98318359,0.0002917,70.0012,46.6908,276.7213,83.3614,-5.8174e-05,-7.87e-06,0.0,0 STARLINK-4786,1 55393U 23014C   23314.99681793 -.00000787  00000-0 -58174-4 0  9993,2 55393  70.0012  46.6908 0002917 276.7213  83.3614 14.98318359 43842,6950.229,96.108,574.121,570.067,0.0
55393.0,STARLINK-4786,PAYLOAD,2023-11-11 12:44:28,14.98332209,0.0002932,70.0007,45.3446,267.3125,92.7699,-0.00015327,-1.921e-05,0.0,0 STARLINK-4786,1 55393U 23014C   23315.53088931 -.00001921  00000-0 -15327-3 0  9992,2 55393  70.0007  45.3446 0002932 267.3125  92.7699 14.98332209 43920,6950.186,96.107,574.089,570.013,0.0
55393.0,STARLINK-4786,PAYLOAD,2023-11-11 14:20:36,14.98333099,0.0003021,70.0007,45.1761,267.0724,93.0089,-0.00016148,-2.019e-05,0.0,0 STARLINK-4786,1 55393U 23014C   23315.59764874 -.00002019  00000-0 -16148-3 0  9996,2 55393  70.0007  45.1761 0003021 267.0724  93.0089 14.98333099 44870,6950.183,96.107,574.148,569.949,0.0
55393.0,STARLINK-4786,PAYLOAD,2023-11-11 15:56:44,14.98332827,0.000297,70.0002,45.0078,266.6822,93.3997,-0.00013421,-1.694e-05,0.0,0 STARLINK-4786,1 55393U 23014C   23315.66440804 -.00001694  00000-0 -13421-3 0  9997,2 55393  70.0002  45.0078 0002970 266.6822  93.3997 14.98332827 44881,6950.184,96.107,574.113,569.985,0.0
55393.0,STARLINK-4786,PAYLOAD,2023-11-12 11:10:21,14.98340387,0.0003099,70.0002,42.9875,268.2941,91.7863,-0.00026106,-3.207e-05,0.0,0 STARLINK-4786,1 55393U 23014C   23316.46552355 -.00003207  00000-0 -26106-3 0  9997,2 55393  70.0002  42.9875 0003099 268.2941  91.7863 14.98340387 44069,6950.161,96.106,574.18,569.872,0.0
55393.0,STARLINK-4786,PAYLOAD,2023-11-12 12:46:28,14.98345465,0.0003066,70.0003,42.8199,267.9989,92.0819,-0.00023061,-2.845e-05,0.0,0 STARLINK-4786,1 55393U 23014C   23316.53227907 -.00002845  00000-0 -23061-3 0  9991,2 55393  70.0003  42.8199 0003066 267.9989  92.0819 14.98345465 45013,6950.145,96.106,574.141,569.879,0.0
55393.0,STARLINK-4786,PAYLOAD,2023-11-12 15:58:44,14.98344098,0.0003207,70.0004,42.4833,270.4385,89.6406,-0.00019523,-2.423e-05,0.0,0 STARLINK-4786,1 55393U 23014C   23316.66579824 -.00002423  00000-0 -19523-3 0  9993,2 55393  70.0004  42.4833 0003207 270.4385  89.6406 14.98344098 45038,6950.149,96.106,574.243,569.785,0.0
55393.0,STARLINK-4786,PAYLOAD,2023-11-13 12:48:29,14.98342292,0.0002502,70.0005,40.2952,261.4229,98.6647,6.9837e-05,7.41e-06,0.0,0 STARLINK-4786,1 55393U 23014C   23317.53367432  .00000741  00000-0  69837-4 0  9993,2 55393  70.0005  40.2952 0002502 261.4229  98.6647 14.98342292 45166,6950.155,96.106,573.759,570.281,0.0
55393.0,STARLINK-4786,PAYLOAD,2023-11-14 11:14:23,14.98320899,0.0002798,70.0009,37.9389,262.2307,97.8535,-8.5557e-05,-1.113e-05,0.0,0 STARLINK-4786,1 55393U 23014C   23318.46833166 -.00001113  00000-0 -85557-4 0  9991,2 55393  70.0009  37.9389 0002798 262.2307  97.8535 14.98320899 44367,6950.221,96.108,574.031,570.141,0.0
55393.0,STARLINK-4786,PAYLOAD,2023-11-14 12:50:32,14.98319379,0.0002597,70.0014,37.771,256.3063,103.7807,-7.784e-05,-1.021e-05,0.0,0 STARLINK-4786,1 55393U 23014C   23318.53509268 -.00001021  00000-0 -77840-4 0  9996,2 55393  70.0014  37.7710 0002597 256.3063 103.7807 14.98319379 45315,6950.226,96.108,573.896,570.286,0.0
55393.0,STARLINK-4786,PAYLOAD,2023-11-14 22:27:19,14.98354013,0.0002675,70.0019,36.76,274.1525,85.9328,-0.00057928,-7.002e-05,0.0,0 STARLINK-4786,1 55393U 23014C   23318.93564348 -.00007002  00000-0 -57928-3 0  9999,2 55393  70.0019  36.7600 0002675 274.1525  85.9328 14.98354013 45374,6950.119,96.105,573.843,570.124,0.0
55393.0,STARLINK-4786,PAYLOAD,2023-11-15 11:16:24,14.98332977,0.0003088,69.9998,35.4132,268.7508,91.3298,-6.816e-05,-9.06e-06,0.0,0 STARLINK-4786,1 55393U 23014C   23319.46972374 -.00000906  00000-0 -68160-4 0  9997,2 55393  69.9998  35.4132 0003088 268.7508  91.3298 14.98332977 44519,6950.184,96.107,574.195,569.902,0.0
55393.0,STARLINK-4786,PAYLOAD,2023-11-15 12:52:32,14.98334467,0.0003001,70.0001,35.2455,268.8621,91.2194,-4.0976e-05,-5.82e-06,0.0,0 STARLINK-4786,1 55393U 23014C   23319.53648198 -.00000582  00000-0 -40976-4 0  9994,2 55393  70.0001  35.2455 0003001 268.8621  91.2194 14.98334467 45460,6950.179,96.107,574.13,569.958,0.0
55393.0,STARLINK-4786,PAYLOAD,2023-11-15 22:29:20,14.98329116,0.0002759,70.001,34.2351,271.7262,88.3581,3.1101e-05,2.78e-06,0.0,0 STARLINK-4786,1 55393U 23014C   23319.93704347  .00000278  00000-0  31101-4 0  9997,2 55393  70.0010  34.2351 0002759 271.7262  88.3581 14.98329116 45526,6950.196,96.107,573.978,570.143,0.0
55393.0,STARLINK-4786,PAYLOAD,2023-11-16 09:42:17,14.98322627,0.00025,70.0016,33.0584,246.1369,113.9529,2.8255e-05,2.44e-06,0.0,0 STARLINK-4786,1 55393U 23014C   23320.40436686  .00000244  00000-0  28255-4 0  9998,2 55393  70.0016  33.0584 0002500 246.1369 113.9529 14.98322627 45599,6950.216,96.107,573.818,570.343,0.0
55393.0,STARLINK-4786,PAYLOAD,2023-11-16 14:30:42,14.98315116,0.0002209,70.0014,32.5536,255.0382,105.0533,1.5435e-06,-7.4e-07,0.0,0 STARLINK-4786,1 55393U 23014C   23320.60465467 -.00000074  00000-0  15435-5 0  9998,2 55393  70.0014  32.5536 0002209 255.0382 105.0533 14.98315116 44689,6950.239,96.108,573.639,570.569,0.0
55393.0,STARLINK-4786,PAYLOAD,2023-11-17 11:20:25,14.98341004,0.0002759,70.0003,30.3642,261.4591,98.6255,0.0001261,1.412e-05,0.0,0 STARLINK-4786,1 55393U 23014C   23321.47251454  .00001412  00000-0  12610-3 0  9999,2 55393  70.0003  30.3642 0002759 261.4591  98.6255 14.98341004 44812,6950.159,96.106,573.941,570.106,0.0
55393.0,STARLINK-4786,PAYLOAD,2023-11-17 14:32:41,14.9833452,0.0003052,69.9995,30.0266,266.7121,93.3689,3.4006e-05,3.13e-06,0.0,0 STARLINK-4786,1 55393U 23014C   23321.60604016  .00000313  00000-0  34006-4 0  9993,2 55393  69.9995  30.0266 0003052 266.7121  93.3689 14.98334520 45776,6950.179,96.107,574.165,569.923,0.0
55393.0,STARLINK-4786,PAYLOAD,2023-11-17 22:33:22,14.98329988,0.0002608,70.0008,29.1855,270.8349,89.2511,-5.963e-06,-1.64e-06,0.0,0 STARLINK-4786,1 55393U 23014C   23321.93984529 -.00000164  00000-0 -59630-5 0  9996,2 55393  70.0008  29.1855 0002608 270.8349  89.2511 14.98329988 45827,6950.193,96.107,573.871,570.245,0.0
55393.0,STARLINK-4786,PAYLOAD,2023-11-18 12:58:34,14.98354444,0.0002569,69.9998,27.6702,260.8973,99.1895,-0.00043218,-5.249e-05,0.0,0 STARLINK-4786,1 55393U 23014C   23322.54067943 -.00005249  00000-0 -43218-3 0  9998,2 55393  69.9998  27.6702 0002569 260.8973  99.1895 14.98354444 45914,6950.117,96.105,573.768,570.197,0.0
55393.0,STARLINK-4786,PAYLOAD,2023-11-18 14:34:43,14.98328337,0.0002851,69.9997,27.5014,266.5417,93.5416,2.7527e-05,2.35e-06,0.0,0 STARLINK-4786,1 55393U 23014C   23322.60744447  .00000235  00000-0  27527-4 0  9990,2 55393  69.9997  27.5014 0002851 266.5417  93.5416 14.98328337 45928,6950.198,96.107,574.045,570.082,0.0
55393.0,STARLINK-4786,PAYLOAD,2023-11-19 03:23:47,14.98331479,0.000283,69.9998,26.1554,266.5287,93.5549,1.923e-05,1.36e-06,0.0,0 STARLINK-4786,1 55393U 23014C   23323.14152208  .00000136  00000-0  19230-4 0  9990,2 55393  69.9998  26.1554 0002830 266.5287  93.5549 14.98331479 45068,6950.188,96.107,574.02,570.086,0.0
55393.0,STARLINK-4786,PAYLOAD,2023-11-19 13:00:35,14.98337405,0.0002814,69.9997,25.1455,264.9696,95.1141,-3.9773e-06,-1.4e-06,0.0,0 STARLINK-4786,1 55393U 23014C   23323.54207799 -.00000140  00000-0 -39773-5 0  9992,2 55393  69.9997  25.1455 0002814 264.9696  95.1141 14.98337405 46066,6950.17,96.107,573.991,570.079,0.0
